{"type":"FeatureCollection","features":[{"type":"Feature","properties":{},"geometry":{"type":"MultiPolygon","coordinates":[[[[178.7253,71.0988],[180,71.515714],[180,70.832199],[178.903425,70.78114],[178.7253,71.0988]]],[[[49.10116,46.39933],[48.64541,45.80629],[47.67591,45.64149],[46.68201,44.6092],[47.59094,43.66016],[47.49252,42.98658],[48.58437,41.80888],[47.815666,41.151416],[45.7764,42.09244],[45.470279,42.502781],[43.93121,42.55496],[42.3944,43.2203],[39.955009,43.434998],[36.67546,45.24469],[37.40317,45.40451],[38.23295,46.24087],[37.67372,46.63657],[39.14767,47.04475],[39.1212,47.26336],[38.223538,47.10219],[38.255112,47.5464],[39.738278,47.898937],[39.89562,48.23241],[39.67465,48.78382],[40.06904,49.60105],[38.010631,49.915662],[37.39346,50.383953],[36.626168,50.225591],[35.356116,50.577197],[35.022183,51.207572],[34.224816,51.255993],[34.391731,51.768882],[33.7527,52.335075],[31.78597,52.10168],[31.305201,53.073996],[32.693643,53.351421],[31.731273,53.794029],[30.757534,54.811771],[30.873909,55.550976],[29.371572,55.670091],[28.176709,56.16913],[27.770016,57.244258],[27.288185,57.474528],[27.716686,57.791899],[27.42015,58.72457],[28.131699,59.300825],[27.98112,59.47537],[29.1177,60.02805],[28.07,60.50352],[31.139991,62.357693],[31.516092,62.867687],[30.035872,63.552814],[30.444685,64.204453],[29.54443,64.948672],[30.21765,65.80598],[29.054589,66.944286],[29.977426,67.698297],[28.445944,68.364613],[28.59193,69.064777],[32.13272,69.90595],[33.77547,69.30142],[36.51396,69.06342],[40.29234,67.9324],[41.05987,67.45713],[41.12595,66.79158],[40.01583,66.26618],[38.38295,65.99953],[33.91871,66.75961],[33.18444,66.63253],[34.81477,65.90015],[34.94391,64.41437],[37.01273,63.84983],[37.14197,64.33471],[36.539579,64.76446],[37.17604,65.14322],[39.59345,64.52079],[40.4356,64.76446],[39.7626,65.49682],[42.09309,66.47623],[43.94975,66.06908],[44.53226,66.75634],[43.69839,67.35245],[44.18795,67.95051],[43.45282,68.57079],[46.25,68.25],[46.82134,67.68997],[45.55517,67.56652],[45.56202,67.01005],[46.34915,66.66767],[47.89416,66.88455],[48.13876,67.52238],[53.71743,68.85738],[54.47171,68.80815],[53.48582,68.20131],[54.72628,68.09702],[55.44268,68.43866],[57.31702,68.46628],[58.802,68.88082],[59.94142,68.27844],[61.07784,68.94069],[60.03,69.52],[60.55,69.85],[63.504,69.54739],[68.51216,68.09233],[69.18068,68.61563],[68.13522,69.35649],[66.93008,69.45461],[67.25976,69.92873],[66.69466,71.02897],[68.54006,71.9345],[69.19636,72.84336],[69.94,73.04],[72.58754,72.77629],[72.79603,72.22006],[71.84811,71.40898],[72.47011,71.09019],[72.79188,70.39114],[72.5647,69.02085],[73.66787,68.4079],[73.2387,67.7404],[71.28,66.32],[72.42301,66.17267],[72.82077,66.53267],[73.92099,66.78946],[74.18651,67.28429],[75.052,67.76047],[74.46926,68.32899],[74.93584,68.98918],[73.84236,69.07146],[73.60187,69.62763],[74.3998,70.63175],[73.1011,71.44717],[74.89082,72.12119],[74.65926,72.83227],[75.15801,72.85497],[75.68351,72.30056],[75.28898,71.33556],[76.35911,71.15287],[75.90313,71.87401],[77.57665,72.26717],[79.65202,72.32011],[81.5,71.75],[80.61071,72.58285],[80.51109,73.6482],[86.8223,73.93688],[86.00956,74.45967],[87.16682,75.11643],[92.90058,75.77333],[93.23421,76.0472],[95.86,76.14],[96.67821,75.91548],[98.92254,76.44689],[100.75967,76.43028],[101.03532,76.86189],[101.99084,77.28754],[104.3516,77.69792],[106.06664,77.37389],[104.705,77.1274],[106.97013,76.97419],[107.24,76.48],[108.1538,76.72335],[111.07726,76.71],[114.13417,75.84764],[113.88539,75.32779],[109.4,74.18],[112.11919,73.78774],[113.01954,73.97693],[113.52958,73.33505],[115.56782,73.75285],[118.77633,73.58772],[119.02,73.12],[123.20066,72.97122],[123.25777,73.73503],[126.97644,73.56549],[128.59126,73.03871],[129.05157,72.39872],[128.46,71.98],[129.71599,71.19304],[131.28858,70.78699],[132.2535,71.8363],[133.85766,71.38642],[135.56193,71.65525],[137.49755,71.34763],[138.23409,71.62803],[139.86983,71.48783],[139.14791,72.41619],[140.46817,72.84941],[149.5,72.2],[150.35118,71.60643],[152.9689,70.84222],[158.99779,70.86672],[159.83031,70.45324],[159.70866,69.72198],[160.94053,69.43728],[167.83567,69.58269],[169.57763,68.6938],[170.81688,69.01363],[170.0082,69.65276],[170.45345,70.09703],[175.72403,69.87725],[180,68.963636],[180,64.979709],[178.7072,64.53493],[177.41128,64.60821],[179.37034,62.98262],[179.48636,62.56894],[179.22825,62.3041],[177.3643,62.5219],[173.68013,61.65261],[170.6985,60.33618],[170.33085,59.88177],[168.90046,60.57355],[166.29498,59.78855],[165.84,60.16],[164.87674,59.7316],[163.53929,59.86871],[163.21711,59.21101],[162.01733,58.24328],[162.05297,57.83912],[163.19191,57.61503],[163.05794,56.15924],[162.12958,56.12219],[161.70146,55.28568],[162.11749,54.85514],[160.36877,54.34433],[160.02173,53.20257],[158.53094,52.95868],[158.23118,51.94269],[156.78979,51.01105],[155.43366,55.38103],[155.91442,56.76792],[156.75815,57.3647],[156.81035,57.83204],[158.36433,58.05575],[161.87204,60.343],[163.66969,61.1409],[164.47355,62.55061],[163.25842,62.46627],[162.65791,61.6425],[160.12148,60.54423],[159.30232,61.77396],[156.72068,61.43442],[154.21806,59.75818],[155.04375,59.14495],[151.26573,58.78089],[151.33815,59.50396],[149.78371,59.65573],[148.54481,59.16448],[145.48722,59.33637],[142.19782,59.03998],[135.12619,54.72959],[136.70171,54.60355],[137.19342,53.97732],[138.1647,53.75501],[138.80463,54.25455],[139.90151,54.18968],[141.34531,53.08957],[141.37923,52.23877],[140.59742,51.23967],[140.06193,48.44671],[138.55472,46.99965],[138.21971,46.30795],[134.86939,43.39821],[133.53687,42.81147],[132.90627,42.79849],[132.27807,43.28456],[130.93587,42.55274],[130.78,42.22],[130.633866,42.903015],[131.144688,42.92999],[131.288555,44.11152],[131.02519,44.96796],[131.883454,45.321162],[133.09712,45.14409],[135.026311,48.47823],[132.50669,47.78896],[130.98726,47.79013],[130.582293,48.729687],[129.397818,49.4406],[127.6574,49.76027],[125.946349,52.792799],[123.57147,53.4588],[121.003085,53.251401],[120.177089,52.753886],[120.725789,52.516226],[120.7382,51.96411],[119.27939,50.58292],[119.288461,50.142883],[117.879244,49.510983],[116.678801,49.888531],[115.485695,49.805177],[114.362456,50.248303],[112.89774,49.543565],[110.662011,49.130128],[108.475167,49.282548],[106.888804,50.274296],[105.886591,50.406019],[103.676545,50.089966],[102.25589,50.51056],[102.06521,51.25991],[98.861491,52.047366],[97.82574,51.010995],[98.231762,50.422401],[97.25976,49.72605],[94.815949,50.013433],[94.147566,50.480537],[92.234712,50.802171],[88.805567,49.470521],[87.35997,49.214981],[86.829357,49.826675],[85.54127,49.692859],[83.383004,51.069183],[81.945986,50.812196],[80.568447,51.388336],[80.03556,50.864751],[77.800916,53.404415],[76.525179,54.177003],[76.8911,54.490524],[74.38482,53.54685],[73.425679,53.48981],[73.508516,54.035617],[72.22415,54.376655],[71.180131,54.133285],[70.865267,55.169734],[69.068167,55.38525],[65.178534,54.354228],[61.4366,54.00625],[60.978066,53.664993],[61.699986,52.979996],[60.739993,52.719986],[60.927269,52.447548],[59.967534,51.96042],[61.588003,51.272659],[61.337424,50.79907],[59.932807,50.842194],[59.642282,50.545442],[58.36332,51.06364],[56.77798,51.04355],[55.71694,50.62171],[52.328724,51.718652],[50.766648,51.692762],[48.702382,50.605128],[48.577841,49.87476],[47.54948,50.454698],[46.751596,49.356006],[47.043672,49.152039],[46.466446,48.394152],[47.31524,47.71585],[48.05725,47.74377],[48.694734,47.075628],[48.59325,46.56104],[49.10116,46.39933]]],[[[93.77766,81.0246],[95.940895,81.2504],[100.186655,79.780135],[99.93976,78.88094],[97.75794,78.7562],[93.31288,79.4265],[92.5454,80.14379],[91.18107,80.34146],[93.77766,81.0246]]],[[[102.837815,79.28129],[105.37243,78.71334],[105.07547,78.30689],[99.43814,77.921],[101.2649,79.23399],[102.08635,79.34641],[102.837815,79.28129]]],[[[138.831075,76.13676],[141.471615,76.09289],[145.086285,75.562625],[144.3,74.82],[138.95544,74.61148],[136.97439,75.26167],[137.51176,75.94917],[138.831075,76.13676]]],[[[148.22223,75.345845],[150.73167,75.08406],[149.575925,74.68892],[147.977465,74.778355],[146.11919,75.17298],[146.358485,75.49682],[148.22223,75.345845]]],[[[139.86312,73.36983],[140.81171,73.76506],[142.06207,73.85758],[143.48283,73.47525],[143.60385,73.21244],[140.038155,73.31692],[139.86312,73.36983]]],[[[44.846958,80.58981],[48.318477,80.78401],[48.522806,80.514569],[50.039768,80.918885],[51.522933,80.699726],[47.586119,80.010181],[46.502826,80.247247],[47.072455,80.559424],[44.846958,80.58981]]],[[[22.731099,54.327537],[19.66064,54.426084],[19.888481,54.86616],[21.268449,55.190482],[22.757764,54.856574],[22.651052,54.582741],[22.731099,54.327537]]],[[[53.50829,73.749814],[55.902459,74.627486],[55.631933,75.081412],[61.170044,76.251883],[68.15706,76.939697],[68.852211,76.544811],[68.180573,76.233642],[61.583508,75.260885],[58.477082,74.309056],[55.419336,72.371268],[55.622838,71.540595],[57.535693,70.720464],[53.677375,70.762658],[53.412017,71.206662],[51.601895,71.474759],[51.455754,72.014881],[52.478275,72.229442],[52.444169,72.774731],[54.427614,73.627548],[53.50829,73.749814]]],[[[142.914616,53.704578],[143.260848,52.74076],[143.235268,51.75666],[144.654148,48.976391],[143.173928,49.306551],[142.558668,47.861575],[143.533492,46.836728],[143.505277,46.137908],[142.747701,46.740765],[142.09203,45.966755],[141.904445,48.859189],[142.179983,50.952342],[141.594076,51.935435],[141.682546,53.301966],[142.606934,53.762145],[142.209749,54.225476],[142.654786,54.365881],[142.914616,53.704578]]],[[[-174.92825,67.20589],[-175.01425,66.58435],[-174.33983,66.33556],[-174.57182,67.06219],[-171.85731,66.91308],[-169.89958,65.97724],[-170.89107,65.54139],[-172.53025,65.43791],[-172.555,64.46079],[-172.95533,64.25269],[-175.98353,64.92288],[-176.20716,65.35667],[-178.35993,65.39052],[-178.90332,65.74044],[-178.68611,66.11211],[-179.88377,65.87456],[-179.43268,65.40411],[-180,64.979709],[-180,68.963636],[-177.55,68.2],[-174.92825,67.20589]]],[[[-178.69378,70.89302],[-180,70.832199],[-180,71.515714],[-179.02433,71.55553],[-177.663575,71.13277],[-178.69378,70.89302]]],[[[33.435988,45.971917],[33.699462,46.219573],[34.732017,45.965666],[35.510009,45.409993],[36.529998,45.46999],[36.334713,45.113216],[33.882511,44.361479],[33.326421,44.564877],[33.546924,45.034771],[32.454174,45.327466],[33.588162,45.851569],[33.435988,45.971917]]]]}},{"type":"Feature","properties":{},"geometry":{"type":"MultiPolygon","coordinates":[[[[15.14282,79.67431],[15.52255,80.01608],[16.99085,80.05086],[21.54383,78.95611],[19.02737,78.5626],[18.47172,77.82669],[17.59441,77.63796],[17.1182,76.80941],[15.91315,76.77045],[13.76259,77.38035],[14.66956,77.73565],[13.1706,78.02493],[11.22231,78.8693],[10.44453,79.65239],[13.17077,80.01046],[13.71852,79.66039],[15.14282,79.67431]]],[[[31.101042,69.558101],[28.59193,69.064777],[29.015573,69.766491],[27.732292,70.164193],[26.179622,69.825299],[25.689213,69.092114],[24.735679,68.649557],[22.356238,68.841741],[21.244936,69.370443],[20.025269,69.065139],[19.87856,68.407194],[17.993868,68.567391],[17.729182,68.010552],[16.768879,68.013937],[13.55569,64.787028],[13.919905,64.445421],[13.571916,64.049114],[12.579935,64.066219],[11.930569,63.128318],[11.992064,61.800362],[12.631147,61.293572],[12.300366,60.117933],[11.027369,58.856149],[10.356557,59.469807],[8.382,58.313288],[7.048748,58.078884],[5.665835,58.588155],[4.992078,61.970998],[5.9129,62.614473],[8.553411,63.454008],[10.527709,64.486038],[14.761146,67.810642],[19.184028,69.817444],[21.378416,70.255169],[23.023742,70.202072],[24.546543,71.030497],[28.165547,71.185474],[31.293418,70.453788],[30.005435,70.186259],[31.101042,69.558101]]],[[[27.407506,80.056406],[25.924651,79.517834],[23.024466,79.400012],[20.075188,79.566823],[19.897266,79.842362],[18.462264,79.85988],[17.368015,80.318896],[20.455992,80.598156],[21.907945,80.357679],[22.919253,80.657144],[25.447625,80.40734],[27.407506,80.056406]]],[[[24.72412,77.85385],[22.49032,77.44493],[20.72601,77.67704],[21.41611,77.93504],[20.8119,78.25463],[22.88426,78.45494],[23.28134,78.07954],[24.72412,77.85385]]]]}},{"type":"Feature","properties":{},"geometry":{"type":"MultiPolygon","coordinates":[[[[-51.657797,4.156232],[-52.939657,2.124858],[-54.524754,2.311849],[-54.006931,3.620038],[-54.478633,4.896756],[-53.958045,5.756548],[-52.882141,5.409851],[-51.823343,4.565768],[-51.657797,4.156232]]],[[[6.18632,49.463803],[8.099279,49.017784],[7.466759,47.620582],[6.736571,47.541801],[6.768714,47.287708],[6.037389,46.725779],[6.022609,46.27299],[6.5001,46.429673],[6.843593,45.991147],[7.096652,45.333099],[6.749955,45.028518],[7.007562,44.254767],[7.549596,44.127901],[7.435185,43.693845],[6.529245,43.128892],[4.556963,43.399651],[3.100411,43.075201],[2.985999,42.473015],[1.826793,42.343385],[0.701591,42.795734],[0.338047,42.579546],[-1.502771,43.034014],[-1.901351,43.422802],[-1.384225,44.02261],[-1.193798,46.014918],[-2.963276,47.570327],[-4.491555,47.954954],[-4.59235,48.68416],[-3.295814,48.901692],[-1.616511,48.644421],[-1.933494,49.776342],[-0.989469,49.347376],[1.338761,50.127173],[1.639001,50.946606],[2.513573,51.148506],[2.658422,50.796848],[3.123252,50.780363],[4.286023,49.907497],[4.799222,49.985373],[5.897759,49.442667],[6.18632,49.463803]]],[[[8.746009,42.628122],[9.390001,43.009985],[9.560016,42.152492],[9.229752,41.380007],[8.775723,41.583612],[8.544213,42.256517],[8.746009,42.628122]]]]}},{"type":"Feature","properties":{},"geometry":{"type":"Polygon","coordinates":[[[11.027369,58.856149],[12.300366,60.117933],[12.631147,61.293572],[11.992064,61.800362],[11.930569,63.128318],[12.579935,64.066219],[13.571916,64.049114],[13.919905,64.445421],[13.55569,64.787028],[16.768879,68.013937],[17.729182,68.010552],[17.993868,68.567391],[19.87856,68.407194],[20.025269,69.065139],[20.645593,69.106247],[23.539473,67.936009],[23.56588,66.396051],[23.903379,66.006927],[22.183173,65.723741],[21.213517,65.026005],[21.369631,64.413588],[17.847779,62.7494],[17.119555,61.341166],[18.787722,60.081914],[17.869225,58.953766],[16.829185,58.719827],[16.44771,57.041118],[15.879786,56.104302],[14.666681,56.200885],[14.100721,55.407781],[12.942911,55.361737],[12.625101,56.30708],[11.787942,57.441817],[11.027369,58.856149]]]}},{"type":"Feature","properties":{},"geometry":{"type":"Polygon","coordinates":[[[28.176709,56.16913],[29.371572,55.670091],[30.873909,55.550976],[30.757534,54.811771],[31.731273,53.794029],[32.693643,53.351421],[31.305201,53.073996],[31.785992,52.101678],[30.927549,52.042353],[30.555117,51.319503],[25.327788,51.910656],[23.527071,51.578454],[23.199494,52.486977],[23.799199,52.691099],[23.484128,53.912498],[25.536354,54.282423],[25.768433,54.846963],[26.588279,55.167176],[26.494331,55.615107],[27.10246,55.783314],[28.176709,56.16913]]]}},{"type":"Feature","properties":{},"geometry":{"type":"Polygon","coordinates":[[[31.785992,52.101678],[33.7527,52.335075],[34.391731,51.768882],[34.224816,51.255993],[35.022183,51.207572],[35.356116,50.577197],[36.626168,50.225591],[37.39346,50.383953],[38.010631,49.915662],[40.06904,49.60105],[39.67465,48.78382],[39.89562,48.23241],[39.738278,47.898937],[38.77057,47.82562],[38.255112,47.5464],[38.223538,47.10219],[34.962342,46.273197],[35.012659,45.737725],[33.699462,46.219573],[33.435988,45.971917],[31.74414,46.333348],[31.675307,46.706245],[30.748749,46.5831],[29.603289,45.293308],[28.679779,45.304031],[28.233554,45.488283],[28.862972,46.437889],[30.024659,46.423937],[29.050868,47.510227],[29.122698,47.849095],[28.670891,48.118149],[27.522537,48.467119],[24.866317,47.737526],[23.142236,48.096341],[22.710531,47.882194],[22.085608,48.422264],[22.558138,49.085738],[22.776419,49.027395],[22.51845,49.476774],[23.426508,50.308506],[23.922757,50.424881],[24.029986,50.705407],[23.527071,51.578454],[25.327788,51.910656],[30.555117,51.319503],[30.927549,52.042353],[31.785992,52.101678]]]}},{"type":"Feature","properties":{},"geometry":{"type":"Polygon","coordinates":[[[23.484128,53.912498],[23.799199,52.691099],[23.199494,52.486977],[24.029986,50.705407],[22.51845,49.476774],[22.776419,49.027395],[21.607808,49.470107],[19.825023,49.217125],[19.320713,49.571574],[18.909575,49.435846],[18.392914,49.988629],[17.649445,50.049038],[17.554567,50.362146],[16.868769,50.473974],[16.719476,50.215747],[16.176253,50.422607],[16.238627,50.697733],[15.016996,51.106674],[14.074521,52.981263],[14.353315,53.248171],[14.119686,53.757029],[17.622832,54.851536],[18.620859,54.682606],[18.696255,54.438719],[23.243987,54.220567],[23.484128,53.912498]]]}},{"type":"Feature","properties":{},"geometry":{"type":"Polygon","coordinates":[[[16.979667,48.123497],[16.903754,47.714866],[16.340584,47.712902],[16.534268,47.496171],[16.011664,46.683611],[14.632472,46.431817],[12.376485,46.767559],[12.153088,47.115393],[11.048556,46.751359],[9.47997,47.10281],[9.594226,47.525058],[9.896068,47.580197],[10.402084,47.302488],[10.544504,47.566399],[12.141357,47.703083],[12.932627,47.467646],[12.884103,48.289146],[13.595946,48.877172],[14.338898,48.555305],[15.253416,49.039074],[16.879983,48.470013],[16.979667,48.123497]]]}},{"type":"Feature","properties":{},"geometry":{"type":"Polygon","coordinates":[[[22.085608,48.422264],[22.710531,47.882194],[22.099768,47.672439],[21.021952,46.316088],[18.456062,45.759481],[17.630066,45.951769],[16.202298,46.852386],[16.534268,47.496171],[16.340584,47.712902],[16.903754,47.714866],[16.979667,48.123497],[17.857133,47.758429],[20.801294,48.623854],[21.872236,48.319971],[22.085608,48.422264]]]}},{"type":"Feature","properties":{},"geometry":{"type":"Polygon","coordinates":[[[26.619337,48.220726],[27.522537,48.467119],[28.670891,48.118149],[29.122698,47.849095],[29.050868,47.510227],[30.024659,46.423937],[28.862972,46.437889],[28.233554,45.488283],[28.12803,46.810476],[26.924176,48.123264],[26.619337,48.220726]]]}},{"type":"Feature","properties":{},"geometry":{"type":"Polygon","coordinates":[[[28.233554,45.488283],[29.603289,45.293308],[29.626543,45.035391],[28.837858,44.913874],[28.558081,43.707462],[27.2424,44.175986],[25.569272,43.688445],[22.944832,43.823785],[22.474008,44.409228],[22.705726,44.578003],[22.145088,44.478422],[21.562023,44.768947],[21.483526,45.18117],[20.220192,46.127469],[21.021952,46.316088],[22.099768,47.672439],[23.142236,48.096341],[24.866317,47.737526],[26.619337,48.220726],[28.12803,46.810476],[28.054443,45.944586],[28.233554,45.488283]]]}},{"type":"Feature","properties":{},"geometry":{"type":"Polygon","coordinates":[[[26.494331,55.615107],[26.588279,55.167176],[25.768433,54.846963],[25.536354,54.282423],[23.484128,53.912498],[22.731099,54.327537],[22.757764,54.856574],[21.268449,55.190482],[21.0558,56.031076],[22.201157,56.337802],[24.860684,56.372528],[25.533047,56.100297],[26.494331,55.615107]]]}},{"type":"Feature","properties":{},"geometry":{"type":"Polygon","coordinates":[[[27.288185,57.474528],[27.770016,57.244258],[28.176709,56.16913],[26.494331,55.615107],[24.860684,56.372528],[22.201157,56.337802],[21.0558,56.031076],[21.090424,56.783873],[21.581866,57.411871],[22.524341,57.753374],[23.318453,57.006236],[24.12073,57.025693],[24.312863,57.793424],[25.164594,57.970157],[26.463532,57.476389],[27.288185,57.474528]]]}},{"type":"Feature","properties":{},"geometry":{"type":"Polygon","coordinates":[[[27.981127,59.475373],[28.131699,59.300825],[27.42015,58.72457],[27.716686,57.791899],[27.288185,57.474528],[26.463532,57.476389],[25.164594,57.970157],[24.312863,57.793424],[24.428928,58.383413],[24.061198,58.257375],[23.42656,58.612753],[23.339795,59.18724],[25.864189,59.61109],[27.981114,59.475388],[27.981127,59.475373]]]}},{"type":"Feature","properties":{},"geometry":{"type":"Polygon","coordinates":[[[14.119686,53.757029],[14.353315,53.248171],[14.074521,52.981263],[15.016996,51.106674],[14.307013,51.117268],[12.240111,50.266338],[12.521024,49.547415],[13.595946,48.877172],[12.884103,48.289146],[12.932627,47.467646],[12.141357,47.703083],[10.544504,47.566399],[10.402084,47.302488],[8.522612,47.830828],[7.466759,47.620582],[8.099279,49.017784],[6.65823,49.201958],[6.18632,49.463803],[6.043073,50.128052],[5.988658,51.851616],[6.589397,51.852029],[6.84287,52.22844],[7.100425,53.693932],[7.936239,53.748296],[8.121706,53.527792],[8.800734,54.020786],[8.526229,54.962744],[9.921906,54.983104],[9.93958,54.596642],[10.950112,54.363607],[10.939467,54.008693],[12.51844,54.470371],[13.647467,54.075511],[14.119686,53.757029]]]}},{"type":"Feature","properties":{},"geometry":{"type":"Polygon","coordinates":[[[22.65715,44.234923],[22.944832,43.823785],[25.569272,43.688445],[27.2424,44.175986],[28.558081,43.707462],[27.673898,42.577892],[27.99672,42.007359],[27.135739,42.141485],[26.117042,41.826905],[26.106138,41.328899],[25.197201,41.234486],[24.492645,41.583896],[22.952377,41.337994],[22.881374,41.999297],[22.380526,42.32026],[22.986019,43.211161],[22.410446,44.008063],[22.65715,44.234923]]]}},{"type":"Feature","properties":{},"geometry":{"type":"MultiPolygon","coordinates":[[[[26.290003,35.29999],[26.164998,35.004995],[24.724982,34.919988],[23.514978,35.279992],[23.69998,35.705004],[24.246665,35.368022],[25.745023,35.179998],[26.290003,35.29999]]],[[[22.952377,41.337994],[24.492645,41.583896],[25.197201,41.234486],[26.106138,41.328899],[26.117042,41.826905],[26.604196,41.562115],[26.056942,40.824123],[24.925848,40.947062],[23.714811,40.687129],[24.407999,40.124993],[23.342999,39.960998],[22.813988,40.476005],[22.626299,40.256561],[23.350027,39.190011],[22.973099,38.970903],[24.025025,38.219993],[24.040011,37.655015],[23.115003,37.920011],[23.409972,37.409991],[22.774972,37.30501],[23.154225,36.422506],[22.490028,36.41],[21.670026,36.844986],[21.120034,38.310323],[20.150016,39.624998],[21.02004,40.842727],[22.76177,41.3048],[22.952377,41.337994]]]]}},{"type":"Feature","properties":{},"geometry":{"type":"Polygon","coordinates":[[[21.02004,40.842727],[20.150016,39.624998],[19.406082,40.250773],[19.540027,41.719986],[19.304486,42.195745],[19.738051,42.688247],[20.52295,42.21787],[20.605182,41.086226],[21.02004,40.842727]]]}},{"type":"Feature","properties":{},"geometry":{"type":"Polygon","coordinates":[[[16.564808,46.503751],[17.630066,45.951769],[18.829825,45.908872],[19.390476,45.236516],[19.005485,44.860234],[17.002146,45.233777],[16.318157,45.004127],[15.959367,45.233777],[15.750026,44.818712],[17.674922,43.028563],[18.56,42.65],[18.450016,42.479991],[16.015385,43.507215],[15.174454,44.243191],[15.37625,44.317915],[14.901602,45.07606],[14.258748,45.233777],[13.952255,44.802124],[13.656976,45.136935],[13.71506,45.500324],[15.327675,45.452316],[15.768733,46.238108],[16.564808,46.503751]]]}},{"type":"Feature","properties":{},"geometry":{"type":"Polygon","coordinates":[[[9.594226,47.525058],[9.47997,47.10281],[10.442701,46.893546],[10.363378,46.483571],[9.182882,46.440215],[8.966306,46.036932],[8.31663,46.163642],[7.273851,45.776948],[6.5001,46.429673],[6.022609,46.27299],[6.037389,46.725779],[6.768714,47.287708],[6.736571,47.541801],[8.317301,47.61358],[8.522612,47.830828],[9.594226,47.525058]]]}},{"type":"Feature","properties":{},"geometry":{"type":"Polygon","coordinates":[[[6.043073,50.128052],[6.18632,49.463803],[5.674052,49.529484],[5.782417,50.090328],[6.043073,50.128052]]]}},{"type":"Feature","properties":{},"geometry":{"type":"Polygon","coordinates":[[[6.156658,50.803721],[5.674052,49.529484],[4.799222,49.985373],[4.286023,49.907497],[3.123252,50.780363],[2.658422,50.796848],[2.513573,51.148506],[4.973991,51.475024],[5.606976,51.037298],[6.156658,50.803721]]]}},{"type":"Feature","properties":{},"geometry":{"type":"Polygon","coordinates":[[[6.90514,53.482162],[7.092053,53.144043],[6.84287,52.22844],[6.589397,51.852029],[5.988658,51.851616],[6.156658,50.803721],[4.973991,51.475024],[3.314971,51.345755],[3.830289,51.620545],[4.705997,53.091798],[6.074183,53.510403],[6.90514,53.482162]]]}},{"type":"Feature","properties":{},"geometry":{"type":"Polygon","coordinates":[[[-9.034818,41.880571],[-8.263857,42.280469],[-8.013175,41.790886],[-6.668606,41.883387],[-6.389088,41.381815],[-6.851127,41.111083],[-7.066592,39.711892],[-7.498632,39.629571],[-7.098037,39.030073],[-7.374092,38.373059],[-7.029281,38.075764],[-7.537105,37.428904],[-7.453726,37.097788],[-7.855613,36.838269],[-8.898857,36.868809],[-8.839998,38.266243],[-9.526571,38.737429],[-8.768684,40.760639],[-8.990789,41.543459],[-9.034818,41.880571]]]}},{"type":"Feature","properties":{},"geometry":{"type":"Polygon","coordinates":[[[-7.453726,37.097788],[-7.537105,37.428904],[-7.029281,38.075764],[-7.374092,38.373059],[-7.098037,39.030073],[-7.498632,39.629571],[-7.066592,39.711892],[-6.851127,41.111083],[-6.389088,41.381815],[-6.668606,41.883387],[-8.013175,41.790886],[-8.263857,42.280469],[-9.034818,41.880571],[-8.984433,42.592775],[-9.392884,43.026625],[-7.97819,43.748338],[-1.901351,43.422802],[-1.502771,43.034014],[0.338047,42.579546],[0.701591,42.795734],[1.826793,42.343385],[2.985999,42.473015],[3.039484,41.89212],[2.091842,41.226089],[0.810525,41.014732],[-0.278711,39.309978],[0.111291,38.738514],[-0.467124,38.292366],[-0.683389,37.642354],[-1.438382,37.443064],[-2.146453,36.674144],[-4.368901,36.677839],[-5.37716,35.94685],[-5.866432,36.029817],[-6.520191,36.942913],[-7.453726,37.097788]]]}},{"type":"Feature","properties":{},"geometry":{"type":"Polygon","coordinates":[[[-6.197885,53.867565],[-6.032985,53.153164],[-6.788857,52.260118],[-8.561617,51.669301],[-9.977086,51.820455],[-9.166283,52.864629],[-9.688525,53.881363],[-7.572168,55.131622],[-7.366031,54.595841],[-7.572168,54.059956],[-6.95373,54.073702],[-6.197885,53.867565]]]}},{"type":"Feature","properties":{},"geometry":{"type":"MultiPolygon","coordinates":[[[[10.442701,46.893546],[11.048556,46.751359],[12.153088,47.115393],[12.376485,46.767559],[13.806475,46.509306],[13.93763,45.591016],[13.141606,45.736692],[12.328581,45.381778],[12.261453,44.600482],[12.589237,44.091366],[13.526906,43.587727],[14.029821,42.761008],[15.14257,41.95514],[15.926191,41.961315],[16.169897,41.740295],[15.889346,41.541082],[18.376687,40.355625],[18.293385,39.810774],[17.73838,40.277671],[16.869596,40.442235],[16.448743,39.795401],[17.17149,39.4247],[17.052841,38.902871],[16.635088,38.843572],[16.100961,37.985899],[15.684087,37.908849],[16.109332,38.964547],[15.413613,40.048357],[11.191906,42.355425],[10.511948,42.931463],[10.200029,43.920007],[8.888946,44.366336],[7.435185,43.693845],[7.549596,44.127901],[7.007562,44.254767],[6.749955,45.028518],[7.096652,45.333099],[6.843593,45.991147],[7.755992,45.82449],[8.31663,46.163642],[8.966306,46.036932],[9.182882,46.440215],[10.363378,46.483571],[10.442701,46.893546]]],[[[14.761249,38.143874],[15.520376,38.231155],[15.099988,36.619987],[12.431004,37.61295],[12.570944,38.126381],[13.741156,38.034966],[14.761249,38.143874]]],[[[8.709991,40.899984],[9.210012,41.209991],[9.809975,40.500009],[9.669519,39.177376],[9.214818,39.240473],[8.806936,38.906618],[8.428302,39.171847],[8.159998,40.950007],[8.709991,40.899984]]]]}},{"type":"Feature","properties":{},"geometry":{"type":"MultiPolygon","coordinates":[[[[9.921906,54.983104],[8.526229,54.962744],[8.120311,55.517723],[8.089977,56.540012],[8.543438,57.110003],[9.424469,57.172066],[10.580006,57.730017],[10.25,56.890016],[10.912182,56.458621],[9.649985,55.469999],[9.921906,54.983104]]],[[[12.370904,56.111407],[12.690006,55.609991],[12.089991,54.800015],[11.043543,55.364864],[10.903914,55.779955],[12.370904,56.111407]]]]}},{"type":"Feature","properties":{},"geometry":{"type":"MultiPolygon","coordinates":[[[[-6.197885,53.867565],[-7.572168,54.059956],[-7.366031,54.595841],[-7.572168,55.131622],[-6.733847,55.17286],[-5.661949,54.554603],[-6.197885,53.867565]]],[[[-3.093831,53.404547],[-2.945009,53.985],[-3.630005,54.615013],[-4.844169,54.790971],[-5.082527,55.061601],[-4.719112,55.508473],[-5.047981,55.783986],[-5.586398,55.311146],[-5.644999,56.275015],[-6.149981,56.78501],[-5.786825,57.818848],[-5.009999,58.630013],[-3.005005,58.635],[-4.073828,57.553025],[-1.959281,57.6848],[-2.219988,56.870017],[-3.119003,55.973793],[-2.085009,55.909998],[-1.114991,54.624986],[-0.430485,54.464376],[0.469977,52.929999],[1.681531,52.73952],[1.559988,52.099998],[1.050562,51.806761],[1.449865,51.289428],[0.550334,50.765739],[-2.489998,50.500019],[-2.956274,50.69688],[-3.617448,50.228356],[-4.542508,50.341837],[-5.245023,49.96],[-5.776567,50.159678],[-4.30999,51.210001],[-3.414851,51.426009],[-4.984367,51.593466],[-5.267296,51.9914],[-4.222347,52.301356],[-4.770013,52.840005],[-4.579999,53.495004],[-3.093831,53.404547]]]]}},{"type":"Feature","properties":{},"geometry":{"type":"Polygon","coordinates":[[[-14.508695,66.455892],[-14.739637,65.808748],[-13.609732,65.126671],[-14.909834,64.364082],[-18.656246,63.496383],[-22.762972,63.960179],[-21.778484,64.402116],[-23.955044,64.89113],[-22.184403,65.084968],[-22.227423,65.378594],[-24.326184,65.611189],[-23.650515,66.262519],[-22.134922,66.410469],[-20.576284,65.732112],[-19.056842,66.276601],[-17.798624,65.993853],[-16.167819,66.526792],[-14.508695,66.455892]]]}},{"type":"Feature","properties":{},"geometry":{"type":"Polygon","coordinates":[[[13.806475,46.509306],[14.632472,46.431817],[16.202298,46.852386],[16.564808,46.503751],[15.768733,46.238108],[15.327675,45.452316],[13.71506,45.500324],[13.93763,45.591016],[13.69811,46.016778],[13.806475,46.509306]]]}},{"type":"Feature","properties":{},"geometry":{"type":"Polygon","coordinates":[[[28.59193,69.064777],[28.445944,68.364613],[29.977426,67.698297],[29.054589,66.944286],[30.21765,65.80598],[29.54443,64.948672],[30.444685,64.204453],[30.035872,63.552814],[31.516092,62.867687],[31.139991,62.357693],[28.069998,60.503517],[22.869695,59.846373],[22.290764,60.391921],[21.322244,60.72017],[21.544866,61.705329],[21.059211,62.607393],[21.536029,63.189735],[25.398068,65.111427],[25.294043,65.534346],[23.903379,66.006927],[23.56588,66.396051],[23.539473,67.936009],[20.645593,69.106247],[21.244936,69.370443],[22.356238,68.841741],[24.735679,68.649557],[25.689213,69.092114],[26.179622,69.825299],[27.732292,70.164193],[29.015573,69.766491],[28.59193,69.064777]]]}},{"type":"Feature","properties":{},"geometry":{"type":"Polygon","coordinates":[[[22.558138,49.085738],[21.872236,48.319971],[20.801294,48.623854],[17.857133,47.758429],[16.979667,48.123497],[16.879983,48.470013],[17.101985,48.816969],[17.886485,48.903475],[18.554971,49.495015],[19.320713,49.571574],[19.825023,49.217125],[21.607808,49.470107],[22.558138,49.085738]]]}},{"type":"Feature","properties":{},"geometry":{"type":"Polygon","coordinates":[[[15.016996,51.106674],[16.238627,50.697733],[16.176253,50.422607],[16.719476,50.215747],[16.868769,50.473974],[17.554567,50.362146],[17.649445,50.049038],[18.392914,49.988629],[18.853144,49.49623],[16.960288,48.596982],[15.253416,49.039074],[14.338898,48.555305],[12.521024,49.547415],[12.240111,50.266338],[14.307013,51.117268],[14.570718,51.002339],[15.016996,51.106674]]]}},{"type":"Feature","properties":{},"geometry":{"type":"Polygon","coordinates":[[[18.56,42.65],[16.456443,44.04124],[15.750026,44.818712],[15.959367,45.233777],[16.318157,45.004127],[17.002146,45.233777],[19.36803,44.863],[19.11761,44.42307],[19.59976,44.03847],[19.454,43.5681],[18.70648,43.20011],[18.56,42.65]]]}},{"type":"Feature","properties":{},"geometry":{"type":"Polygon","coordinates":[[[22.380526,42.32026],[22.881374,41.999297],[22.952377,41.337994],[21.02004,40.842727],[20.605182,41.086226],[20.463175,41.515089],[20.76216,42.05186],[21.91708,42.30364],[22.380526,42.32026]]]}},{"type":"Feature","properties":{},"geometry":{"type":"Polygon","coordinates":[[[18.829825,45.908872],[20.220192,46.127469],[21.483526,45.18117],[21.562023,44.768947],[22.145088,44.478422],[22.705726,44.578003],[22.410446,44.008063],[22.986019,43.211161],[22.545012,42.461362],[21.576636,42.245224],[21.77505,42.6827],[20.81448,43.27205],[20.25758,42.81275],[19.21852,43.52384],[19.59976,44.03847],[19.11761,44.42307],[19.36803,44.863],[19.00548,44.86023],[19.390476,45.236516],[19.072769,45.521511],[18.829825,45.908872]]]}},{"type":"Feature","properties":{},"geometry":{"type":"Polygon","coordinates":[[[20.0707,42.58863],[19.738051,42.688247],[19.304486,42.195745],[19.371768,41.877551],[18.450017,42.479992],[18.70648,43.20011],[19.21852,43.52384],[20.25758,42.81275],[20.0707,42.58863]]]}},{"type":"Feature","properties":{},"geometry":{"type":"Polygon","coordinates":[[[20.590247,41.855409],[20.0707,42.58863],[20.81448,43.27205],[21.77505,42.6827],[21.576636,42.245224],[20.71731,41.84711],[20.590247,41.855409]]]}}]}
