{"type":"FeatureCollection","features":[{"type":"Feature","properties":{},"geometry":{"type":"MultiPolygon","coordinates":[[[[28.983668000178113,44.69244300024434],[28.916531999652136,44.69754800004023],[28.824385999614265,44.61732000011796],[28.98490799980442,44.67231400009109],[28.983668000178113,44.69244300024434]]],[[[26.722882000104278,48.26311500035706],[26.3460590004226,48.18086299972771],[26.169314000340876,47.988460999775384],[25.226547000343828,47.89918499988789],[25.114221999645622,47.76015099956902],[24.896391999791035,47.72563999988614],[24.82808600016881,47.82085300016587],[24.708592999867108,47.85134799991033],[24.59692499978894,47.9636549997785],[24.424179999807222,47.977497999633044],[24.365678999985903,47.91829799995281],[24.223263000187387,47.904338000098676],[23.979565999970987,47.97356399987876],[23.861832999893068,47.936530999905756],[23.78867499955163,47.99642600015983],[23.66592700023091,47.97996900026919],[23.533520999794348,48.022759000427584],[23.45153999997109,47.96940699973328],[23.267566000170802,48.05469900025872],[23.251380000186884,48.10107100012658],[23.141610000401272,48.110278000229584],[23.076132999938068,48.00931500008721],[22.92411899999189,48.01816199977651],[22.937898999639174,47.96768899964769],[22.75957200034759,47.89638800040592],[22.771263999933694,47.8435970004013],[22.68173500007026,47.79038599991401],[22.549095999680674,47.77404399993071],[22.48053299989806,47.818610000151466],[22.42890799970445,47.742331999822],[22.3154160000484,47.766017000284364],[22.174351999645125,47.59328800014117],[22.128363000352238,47.600581000113095],[22.024223000291272,47.52365799971699],[22.022680000181936,47.39457300044364],[21.933608999855494,47.37013600037619],[21.788583000205335,47.113657999816894],[21.645387000409812,47.042152000114754],[21.67712399987272,46.964640999582514],[21.59847299982914,46.929870999646994],[21.603380000386778,46.86951000038624],[21.51125300032578,46.83910899958073],[21.481304999726035,46.7708510003734],[21.523852000369573,46.72170600033172],[21.422628999928463,46.691480000401725],[21.450701000350932,46.661825999870075],[21.40797200030761,46.626461000374945],[21.312683000120387,46.621524000232455],[21.254868999604696,46.50887299978916],[21.313189000072327,46.44178499967802],[21.205696000070418,46.407772999624285],[21.17290399961996,46.30184599989303],[21.112694000128045,46.30244499963709],[21.06297699978876,46.244229000368136],[20.77602899973857,46.27671100001271],[20.75745900043256,46.20623400009907],[20.63658200015925,46.13077599981261],[20.491209999841658,46.19432100021402],[20.457208000249068,46.14395799976194],[20.353849000231207,46.17319099976487],[20.265430000294316,46.10855899959819],[20.502028999638696,45.893960000353786],[20.561715000147217,45.90565900026269],[20.693299000448576,45.75266299999748],[20.811139000064827,45.76624599955329],[20.760656000374183,45.61507799994979],[20.81838200042904,45.53183699957793],[20.761849999677793,45.47626499992987],[20.867135000380017,45.45498299966573],[21.01641600019832,45.32067799978989],[21.084776999658857,45.29434899970664],[21.16736100030994,45.318095000284075],[21.213720999624456,45.246387000259915],[21.39910599974212,45.218683999766824],[21.508541000266973,45.157274999841434],[21.43639699992167,45.041465000309586],[21.359366999987117,45.011366999987104],[21.566218999906994,44.88566600028571],[21.365150999619004,44.85045299970625],[21.397766000000956,44.77231499993735],[21.575739000054853,44.74549499969453],[21.630002999638748,44.64807500016116],[21.982977000288372,44.61534199973357],[22.124526999721297,44.468384000021615],[22.16750100027099,44.473723999862784],[22.28282900005837,44.6452149995726],[22.417657999816868,44.69732299955683],[22.733644999916862,44.557009999611864],[22.748085000322533,44.533317999725966],[22.685547999640505,44.50567900038561],[22.56305400034188,44.53187999996209],[22.525303999679863,44.46645300000603],[22.447612999840146,44.45409300019185],[22.550399999560398,44.29913300018785],[22.686300000144968,44.28425899955323],[22.685637000147494,44.21524899984155],[23.053290999679916,44.08960700016297],[23.031482000294147,44.031563999878756],[22.892636999697856,43.987836999677825],[22.84238900005238,43.89604699986921],[22.875120000387767,43.844581999859486],[23.066609999651803,43.80826200039104],[23.446136999922658,43.86486800005821],[24.184505999852036,43.69651800040543],[24.350571000251534,43.710514000121066],[24.528456999890693,43.7816319999169],[24.73024500010672,43.72797899973108],[24.990009000215252,43.74951500001731],[25.07725299992603,43.707798999923966],[25.26622499998382,43.700539999721286],[25.397292999872093,43.63888300005044],[25.783795999885513,43.727682999570845],[26.125413000209846,43.99798399996166],[27.018790999704947,44.156787000020074],[27.260250000137432,44.129920000307834],[27.28219300030679,44.07734100018706],[27.388291999875946,44.01842500011372],[27.63735500023313,44.05055599975964],[27.719865000169648,43.956632999613305],[27.902070000230367,44.0096320002167],[27.983900000284848,43.84010600029171],[28.226994999719523,43.77020700005306],[28.56704699981924,43.73986400012353],[28.658695000274122,44.00944999991759],[28.62199699956193,44.161574999586605],[28.664482000044302,44.17555999969426],[28.619236999987606,44.22854999988266],[28.623861000085128,44.307143999995674],[28.929489000017384,44.5897450001317],[28.748777999605068,44.45964499991686],[28.77623300035276,44.5451860002338],[28.72039800026755,44.5417970004313],[28.78588300020033,44.576054000092086],[28.75874499968205,44.61547000024035],[28.817945000261602,44.63264099978238],[28.77413399978434,44.656326000244746],[28.806328999683615,44.68387599997749],[28.7388410000122,44.677326000094865],[28.78413699972282,44.70370199964759],[28.717327999887345,44.67860399967492],[28.712680999628503,44.728367000336846],[28.769774000170003,44.704367999783415],[28.93973100018559,44.746750000012526],[28.913490999709893,44.774217999561074],[28.939499000278715,44.7943299998297],[28.894492999552313,44.78964599966321],[28.94892499968904,44.81724599990304],[28.852030000084483,44.87114299964975],[28.850138000068682,44.94046800039797],[28.969088999657686,45.00889700029637],[29.093349000356113,44.973481000248],[29.025471999832973,44.87706700034187],[29.06129799990282,44.81632999992962],[29.09013999986115,44.86420099967643],[29.141190999664957,44.828040000345766],[29.136588999682658,44.78609000025335],[28.967206000056933,44.73630999970675],[28.99140800007922,44.675885000192636],[29.165437999963785,44.7775229999865],[29.56144100010215,44.819824000077574],[29.57183800022358,44.8970910001496],[29.62423299995305,44.886825999820076],[29.69168199962462,45.146358000021735],[29.647158999588214,45.16079000005851],[29.651813000169852,45.31974099974741],[29.53496599958129,45.401947000054065],[29.320759000427586,45.436547000243934],[28.954787000219937,45.3191759997726],[28.94184799978541,45.264850000027536],[28.779179999557357,45.314586000343695],[28.771500999771376,45.21971399960148],[28.345260000048995,45.30770499958612],[28.279809999931615,45.435264000433335],[28.196613999836302,45.45957500008626],[28.154860999835307,45.562648999551755],[28.087242999564808,45.60907300001901],[28.169209999641794,45.6469680001731],[28.086736999612867,46.01365600012434],[28.14364699980922,46.17935599987953],[28.1176539999322,46.2255240002325],[28.215708999970445,46.30728099961851],[28.18325399977232,46.35478999975874],[28.263047000318863,46.44244100025202],[28.212111999569174,46.50137700034833],[28.26277799960502,46.63657099985181],[28.08734799991032,46.89886100043486],[28.1115980003475,46.97041399960648],[27.78280499965109,47.133296999856725],[27.801778999601197,47.183930000169426],[27.72712799965751,47.28764000018589],[27.605772999824126,47.30701699983473],[27.62552899986349,47.34585600035416],[27.574734000174033,47.36568900034712],[27.55725800005672,47.43136199995638],[27.58005299994602,47.46794499986191],[27.473763999708865,47.48870600038168],[27.429071999972848,47.58168700025493],[27.32977200007781,47.635344999771974],[27.265576000232272,47.72158800008617],[27.312935999796593,47.74930600037169],[27.2301650004145,47.82808700011503],[27.256061000314958,47.86840499959112],[27.176995000019303,47.92592299994652],[27.19096200019618,48.0021580000917],[27.105922999646793,48.01461800002073],[27.124110000176415,48.03895499997333],[27.040505000105725,48.09646700005209],[27.057401999602632,48.12658300030529],[26.96981900044659,48.13040500029058],[27.003819999993084,48.160358000221606],[26.906634999605615,48.183825999670205],[26.845535999586787,48.24544899957175],[26.723455999594762,48.256660000358806],[26.722882000104278,48.26311500035706]]]]}}]}
