{"type":"FeatureCollection","features":[{"type":"Feature","properties":{},"geometry":{"type":"Polygon","coordinates":[[[25.063380400815586,47.1365466941776],[25.144049431213144,47.11321367161781],[25.173067316309616,47.13058202305276],[25.251503974425884,47.09780658893139],[25.295929454070656,47.11524038311412],[25.28711547319525,47.1331114365848],[25.305407746628777,47.16507353922217],[25.42553475017711,47.18402366542075],[25.42609399277718,47.17033828237344],[25.45762202712856,47.14461151736962],[25.530285040166174,47.11051557307958],[25.538538771526067,47.08282675132906],[25.601579642250453,47.07732416817255],[25.623789118459015,47.095015158112474],[25.652135788533258,47.087211470821146],[25.664536544728133,47.118293246612595],[25.69778110215936,47.14349047001282],[25.690513066999742,47.1547468984289],[25.699946083857967,47.1708370229073],[25.720293901719828,47.17458340431083],[25.716051676408554,47.19589331907322],[25.728981483717497,47.21706037668114],[25.812825257054726,47.25935963568773],[25.76389302893436,47.31760857400283],[25.77295022990245,47.32094754912584],[25.834803048669748,47.312149725432],[25.89087095596627,47.26775846250354],[25.92359920170431,47.259127623913585],[25.932282600632647,47.277056494266844],[25.97857171852155,47.288651040574784],[26.02492706147625,47.28934149503677],[26.05631950279798,47.27453639173119],[26.185902594861382,47.30729350964728],[26.267206198643613,47.28194483143512],[26.277099037813144,47.29511464882355],[26.40551587155312,47.34030045116187],[26.5077940564651,47.27170214156455],[26.546270537775065,47.30083339297531],[26.562763110605,47.29219176941147],[26.574496478138087,47.30652914952863],[26.55075165847026,47.30961102413106],[26.49707079186563,47.34989646936497],[26.50884375219306,47.36314592432576],[26.49336325614616,47.39237491910116],[26.527442668508122,47.40462266304464],[26.532889558650844,47.38986166101554],[26.570903514619385,47.389398822492865],[26.570505190909184,47.37618718011304],[26.6093998091511,47.35536642128554],[26.673544717990204,47.35858872142849],[26.683203334735037,47.36648608703341],[26.66098609126306,47.36986802391185],[26.67897759522723,47.37531798766155],[26.64419920968049,47.39896728337188],[26.67812233996557,47.413327321230035],[26.695508334205776,47.4004308331008],[26.703276930644435,47.40879224934116],[26.68037757840316,47.43976767582165],[26.68148904438671,47.46150853841323],[26.695427599604105,47.459662021467025],[26.700968932148985,47.471621134646554],[26.591030231715305,47.459698574913986],[26.589072116557265,47.4905944437225],[26.560543415931363,47.49558692114973],[26.550392530210296,47.511704827422136],[26.60485734445138,47.52058425115745],[26.60391860372924,47.53274045479808],[26.578005437253875,47.53533342576035],[26.558086095538886,47.579057057326445],[26.541715106417705,47.58256775984737],[26.547960942744904,47.59114267212214],[26.537187965126403,47.59807348822423],[26.55195830068915,47.609527324080204],[26.536129135954837,47.61922772956983],[26.534977444322884,47.638709060610054],[26.545595581554494,47.643444164502334],[26.49665985872752,47.65873586529474],[26.507467522457684,47.663452699627086],[26.463429257377,47.70692600325047],[26.467634142352747,47.715876059853976],[26.446011779052654,47.733563846575215],[26.432334212045923,47.726294679536885],[26.43984547603973,47.742969689537034],[26.421041137131425,47.74751399204466],[26.396107813701235,47.73432028624415],[26.39003601419453,47.7448959561166],[26.406373480324703,47.7543164929456],[26.40636475038593,47.78404623698259],[26.375544395091957,47.77364829740476],[26.353157284948427,47.78495167032638],[26.318114031858673,47.814988356306564],[26.325016840461988,47.83092808765699],[26.300881749275955,47.83538383974866],[26.31095665847826,47.849286678387365],[26.293526566837652,47.86310306077267],[26.28179102395649,47.856682030192225],[26.264141359332108,47.86836114514527],[26.272995765784547,47.875493171943475],[26.228896229078675,47.900145819599906],[26.199387770680115,47.88439808392927],[26.183729543317195,47.892951259659895],[26.184276398880677,47.9194886238271],[26.125984251114883,47.93264122746799],[26.131112116760256,47.95333572958858],[26.110990858525035,47.96506678272669],[26.11967013667527,47.972307144750296],[26.06118037389738,47.9880153453168],[25.95197247241412,47.97082763186015],[25.91464290840442,47.97740170768857],[25.891947407792994,47.96122314419915],[25.8375911940554,47.967129244677935],[25.774791468177956,47.93946323472288],[25.62551113486808,47.948741933559695],[25.310876540460203,47.91433105316773],[25.269880674381834,47.89239348207585],[25.229990673876333,47.892878475482604],[25.221963951025106,47.85865845904726],[25.18016694461063,47.82591031917774],[25.167603806458068,47.792245971596785],[25.13408587529452,47.78230061310223],[25.115599121222456,47.7548232839107],[25.05381755958429,47.746392657275415],[25.040097995715083,47.72540162362983],[24.947100648681037,47.72912376996284],[24.95225391971104,47.70552004002574],[25.056424671373826,47.64754326711021],[24.958558371245807,47.61517601020536],[24.960837263263365,47.5968508413438],[25.00704757054907,47.569018549607],[25.051919712176062,47.56035656708978],[25.066425289952143,47.53053523762584],[25.093522089786557,47.512296559391665],[25.06137652411832,47.481348217278985],[25.039962366629286,47.482854260969475],[25.066117306374466,47.45043821953553],[25.090785973331524,47.44909808913625],[25.052614464151272,47.43132132876172],[25.058315895372534,47.41648272784231],[25.026411453069475,47.435975768081384],[24.982876208878764,47.42386787175419],[25.06935913343162,47.370200255314025],[25.06044171295427,47.35302073084832],[25.07709544679647,47.34076192984479],[25.079434161813772,47.31471085127684],[25.02802875691866,47.286686759828235],[25.079693271915325,47.258310039330595],[25.044522896438025,47.215462995883655],[25.058213051427305,47.201418781531714],[25.065968890851515,47.143057062223576],[25.063380400815586,47.1365466941776]]]}}]}
